{
  "type": "FeatureCollection",
  "features": [
    {
      "type": "Feature",
      "properties": {
        "norad_id": 38487,
        "name": "COSMOS 2251 DEB",
        "group": "cosmos-2251-debris",
        "lat": -42.552383222410924,
        "lon": -145.47860076449933,
        "alt_km": 506.66876240934744,
        "timestamp": "2025-12-19T16:54:44.661568+00:00",
        "meta_object_name": "COSMOS 2251 DEB",
        "meta_object_id": "1993-036BTX",
        "meta_epoch": "2025-12-18T08:17:15.140832",
        "meta_mean_motion": 15.17739234,
        "meta_eccentricity": 0.00209744,
        "meta_inclination": 73.9753,
        "meta_ra_of_asc_node": 22.0718,
        "meta_arg_of_pericenter": 194.1031,
        "meta_mean_anomaly": 165.9582,
        "meta_ephemeris_type": 0,
        "meta_classification_type": "U",
        "meta_norad_cat_id": 38487,
        "meta_element_set_no": 999,
        "meta_rev_at_epoch": 66885,
        "meta_bstar": 0.0016984027,
        "meta_mean_motion_dot": 0.00034604,
        "meta_mean_motion_ddot": 0,
        "tle_line1": "1 38487U 93036BTX 25352.34531413  .00034604  00000+0  16984-2 0  9998",
        "tle_line2": "2 38487  73.9753  22.0718 0020974 194.1031 165.9582 15.17739234668858"
      },
      "geometry": {
        "type": "Point",
        "coordinates": [
          -145.47860076449933,
          -42.552383222410924
        ]
      }
    },
    {
      "type": "Feature",
      "properties": {
        "norad_id": 39109,
        "name": "COSMOS 2251 DEB",
        "group": "cosmos-2251-debris",
        "lat": 49.738142149248795,
        "lon": -128.6889329544183,
        "alt_km": 660.2623121785418,
        "timestamp": "2025-12-19T16:54:44.661578+00:00",
        "meta_object_name": "COSMOS 2251 DEB",
        "meta_object_id": "1993-036BTY",
        "meta_epoch": "2025-12-16T09:28:20.054784",
        "meta_mean_motion": 14.70744531,
        "meta_eccentricity": 0.00594106,
        "meta_inclination": 74.0429,
        "meta_ra_of_asc_node": 217.9855,
        "meta_arg_of_pericenter": 320.6122,
        "meta_mean_anomaly": 213.0839,
        "meta_ephemeris_type": 0,
        "meta_classification_type": "U",
        "meta_norad_cat_id": 39109,
        "meta_element_set_no": 999,
        "meta_rev_at_epoch": 65227,
        "meta_bstar": 0.00033652687,
        "meta_mean_motion_dot": 2.076e-05,
        "meta_mean_motion_ddot": 0,
        "tle_line1": "1 39109U 93036BTY 25350.39467656  .00002076  00000+0  33653-3 0  9991",
        "tle_line2": "2 39109  74.0429 217.9855 0059410 320.6122 213.0839 14.70744531652276"
      },
      "geometry": {
        "type": "Point",
        "coordinates": [
          -128.6889329544183,
          49.738142149248795
        ]
      }
    },
    {
      "type": "Feature",
      "properties": {
        "norad_id": 39110,
        "name": "COSMOS 2251 DEB",
        "group": "cosmos-2251-debris",
        "lat": -73.76469262636795,
        "lon": -33.23043459398422,
        "alt_km": 592.6414640846078,
        "timestamp": "2025-12-19T16:54:44.661588+00:00",
        "meta_object_name": "COSMOS 2251 DEB",
        "meta_object_id": "1993-036BTZ",
        "meta_epoch": "2025-12-17T22:04:59.920608",
        "meta_mean_motion": 14.72312711,
        "meta_eccentricity": 0.00972569,
        "meta_inclination": 73.9594,
        "meta_ra_of_asc_node": 51.3772,
        "meta_arg_of_pericenter": 282.7235,
        "meta_mean_anomaly": 255.0933,
        "meta_ephemeris_type": 0,
        "meta_classification_type": "U",
        "meta_norad_cat_id": 39110,
        "meta_element_set_no": 999,
        "meta_rev_at_epoch": 62560,
        "meta_bstar": 0.00028872963,
        "meta_mean_motion_dot": 1.929e-05,
        "meta_mean_motion_ddot": 0,
        "tle_line1": "1 39110U 93036BTZ 25351.92013797  .00001929  00000+0  28873-3 0  9990",
        "tle_line2": "2 39110  73.9594  51.3772 0097256 282.7235 255.0933 14.72312711625601"
      },
      "geometry": {
        "type": "Point",
        "coordinates": [
          -33.23043459398422,
          -73.76469262636795
        ]
      }
    },
    {
      "type": "Feature",
      "properties": {
        "norad_id": 39111,
        "name": "COSMOS 2251 DEB",
        "group": "cosmos-2251-debris",
        "lat": -7.459440494298579,
        "lon": -151.20308321660596,
        "alt_km": 530.3479578609331,
        "timestamp": "2025-12-19T16:54:44.661599+00:00",
        "meta_object_name": "COSMOS 2251 DEB",
        "meta_object_id": "1993-036BUA",
        "meta_epoch": "2025-12-01T22:58:55.551360",
        "meta_mean_motion": 15.11912111,
        "meta_eccentricity": 0.00109111,
        "meta_inclination": 74.0059,
        "meta_ra_of_asc_node": 63.5328,
        "meta_arg_of_pericenter": 39.1207,
        "meta_mean_anomaly": 321.0773,
        "meta_ephemeris_type": 0,
        "meta_classification_type": "U",
        "meta_norad_cat_id": 39111,
        "meta_element_set_no": 999,
        "meta_rev_at_epoch": 8982,
        "meta_bstar": 0.0056424119,
        "meta_mean_motion_dot": 0.00098096,
        "meta_mean_motion_ddot": 0,
        "tle_line1": "1 39111U 93036BUA 25335.95758740  .00098096  00000+0  56424-2 0  9993",
        "tle_line2": "2 39111  74.0059  63.5328 0010911  39.1207 321.0773 15.11912111 89826"
      },
      "geometry": {
        "type": "Point",
        "coordinates": [
          -151.20308321660596,
          -7.459440494298579
        ]
      }
    },
    {
      "type": "Feature",
      "properties": {
        "norad_id": 39546,
        "name": "COSMOS 2251 DEB",
        "group": "cosmos-2251-debris",
        "lat": 73.30336158793396,
        "lon": -130.3254867058616,
        "alt_km": 614.1463170536326,
        "timestamp": "2025-12-19T16:54:44.661609+00:00",
        "meta_object_name": "COSMOS 2251 DEB",
        "meta_object_id": "1993-036BUC",
        "meta_epoch": "2025-12-16T03:12:27.285696",
        "meta_mean_motion": 14.92150087,
        "meta_eccentricity": 0.00441533,
        "meta_inclination": 73.9967,
        "meta_ra_of_asc_node": 129.9626,
        "meta_arg_of_pericenter": 289.5542,
        "meta_mean_anomaly": 70.0875,
        "meta_ephemeris_type": 0,
        "meta_classification_type": "U",
        "meta_norad_cat_id": 39546,
        "meta_element_set_no": 999,
        "meta_rev_at_epoch": 64487,
        "meta_bstar": 0.001062699,
        "meta_mean_motion_dot": 0.00010998,
        "meta_mean_motion_ddot": 0,
        "tle_line1": "1 39546U 93036BUC 25350.13364914  .00010998  00000+0  10627-2 0  9998",
        "tle_line2": "2 39546  73.9967 129.9626 0044153 289.5542  70.0875 14.92150087644870"
      },
      "geometry": {
        "type": "Point",
        "coordinates": [
          -130.3254867058616,
          73.30336158793396
        ]
      }
    },
    {
      "type": "Feature",
      "properties": {
        "norad_id": 39547,
        "name": "COSMOS 2251 DEB",
        "group": "cosmos-2251-debris",
        "lat": 9.505952977847137,
        "lon": 6.87087382312757,
        "alt_km": 552.7441775130901,
        "timestamp": "2025-12-19T16:54:44.661620+00:00",
        "meta_object_name": "COSMOS 2251 DEB",
        "meta_object_id": "1993-036BUD",
        "meta_epoch": "2025-12-19T07:21:14.963616",
        "meta_mean_motion": 15.03732917,
        "meta_eccentricity": 0.00057579,
        "meta_inclination": 74.0009,
        "meta_ra_of_asc_node": 4.9325,
        "meta_arg_of_pericenter": 3.3316,
        "meta_mean_anomaly": 11.6145,
        "meta_ephemeris_type": 0,
        "meta_classification_type": "U",
        "meta_norad_cat_id": 39547,
        "meta_element_set_no": 999,
        "meta_rev_at_epoch": 64124,
        "meta_bstar": 0.0019086725,
        "meta_mean_motion_dot": 0.0002626,
        "meta_mean_motion_ddot": 0,
        "tle_line1": "1 39547U 93036BUD 25353.30642319  .00026260  00000+0  19087-2 0  9997",
        "tle_line2": "2 39547  74.0009   4.9325 0005757   3.3316  11.6145 15.03732917641246"
      },
      "geometry": {
        "type": "Point",
        "coordinates": [
          6.87087382312757,
          9.505952977847137
        ]
      }
    },
    {
      "type": "Feature",
      "properties": {
        "norad_id": 39553,
        "name": "COSMOS 2251 DEB",
        "group": "cosmos-2251-debris",
        "lat": 70.27983377527396,
        "lon": 84.93145827721371,
        "alt_km": 741.8663117233818,
        "timestamp": "2025-12-19T16:54:44.661630+00:00",
        "meta_object_name": "COSMOS 2251 DEB",
        "meta_object_id": "1993-036BUK",
        "meta_epoch": "2025-12-19T04:26:08.787552",
        "meta_mean_motion": 13.99893274,
        "meta_eccentricity": 0.02023146,
        "meta_inclination": 74.0301,
        "meta_ra_of_asc_node": 318.8543,
        "meta_arg_of_pericenter": 93.0274,
        "meta_mean_anomaly": 269.4029,
        "meta_ephemeris_type": 0,
        "meta_classification_type": "U",
        "meta_norad_cat_id": 39553,
        "meta_element_set_no": 999,
        "meta_rev_at_epoch": 75707,
        "meta_bstar": 0.00037697212,
        "meta_mean_motion_dot": 6.38e-06,
        "meta_mean_motion_ddot": 0,
        "tle_line1": "1 39553U 93036BUK 25353.18482393  .00000638  00000+0  37697-3 0  9993",
        "tle_line2": "2 39553  74.0301 318.8543 0202314  93.0274 269.4029 13.99893274757074"
      },
      "geometry": {
        "type": "Point",
        "coordinates": [
          84.93145827721371,
          70.27983377527396
        ]
      }
    }
  ]
}